[{"OBJECT_NAME":"ONEWEB-0087","OBJECT_ID":"2020-020AD","EPOCH":"2026-03-22T06:45:50.951808","MEAN_MOTION":13.11416088,"ECCENTRICITY":0.00017562,"INCLINATION":87.8903,"RA_OF_ASC_NODE":38.304,"ARG_OF_PERICENTER":89.5317,"MEAN_ANOMALY":270.6012,"EPHEMERIS_TYPE":0,"CLASSIFICATION_TYPE":"U","NORAD_CAT_ID":45451,"ELEMENT_SET_NO":999,"REV_AT_EPOCH":29119,"BSTAR":-0.0010877854,"MEAN_MOTION_DOT":-3.73e-6,"MEAN_MOTION_DDOT":0},{"OBJECT_NAME":"ONEWEB-0082","OBJECT_ID":"2020-020AE","EPOCH":"2026-03-22T06:41:09.270528","MEAN_MOTION":13.11416173,"ECCENTRICITY":0.00017999,"INCLINATION":87.8894,"RA_OF_ASC_NODE":38.3282,"ARG_OF_PERICENTER":88.1883,"MEAN_ANOMALY":271.9452,"EPHEMERIS_TYPE":0,"CLASSIFICATION_TYPE":"U","NORAD_CAT_ID":45452,"ELEMENT_SET_NO":999,"REV_AT_EPOCH":29128,"BSTAR":-0.00089481506,"MEAN_MOTION_DOT":-3.04e-6,"MEAN_MOTION_DDOT":0},{"OBJECT_NAME":"ONEWEB-0050","OBJECT_ID":"2020-020AF","EPOCH":"2026-03-22T04:22:44.138784","MEAN_MOTION":14.90053143,"ECCENTRICITY":9.58e-5,"INCLINATION":88.9218,"RA_OF_ASC_NODE":245.045,"ARG_OF_PERICENTER":326.096,"MEAN_ANOMALY":34.0208,"EPHEMERIS_TYPE":0,"CLASSIFICATION_TYPE":"U","NORAD_CAT_ID":45453,"ELEMENT_SET_NO":999,"REV_AT_EPOCH":32742,"BSTAR":0.00024896444,"MEAN_MOTION_DOT":2.423e-5,"MEAN_MOTION_DDOT":0},{"OBJECT_NAME":"ONEWEB-0034","OBJECT_ID":"2020-020AG","EPOCH":"2026-03-22T03:31:57.507168","MEAN_MOTION":13.11418728,"ECCENTRICITY":0.00018945,"INCLINATION":87.8893,"RA_OF_ASC_NODE":38.3586,"ARG_OF_PERICENTER":80.9841,"MEAN_ANOMALY":279.1501,"EPHEMERIS_TYPE":0,"CLASSIFICATION_TYPE":"U","NORAD_CAT_ID":45454,"ELEMENT_SET_NO":999,"REV_AT_EPOCH":29118,"BSTAR":-0.00089635407,"MEAN_MOTION_DOT":-3.05e-6,"MEAN_MOTION_DDOT":0},{"OBJECT_NAME":"ONEWEB-0060","OBJECT_ID":"2020-020AH","EPOCH":"2026-03-22T06:30:10.295136","MEAN_MOTION":13.11413888,"ECCENTRICITY":0.00019646,"INCLINATION":87.8886,"RA_OF_ASC_NODE":38.3438,"ARG_OF_PERICENTER":112.7701,"MEAN_ANOMALY":247.3635,"EPHEMERIS_TYPE":0,"CLASSIFICATION_TYPE":"U","NORAD_CAT_ID":45455,"ELEMENT_SET_NO":999,"REV_AT_EPOCH":29115,"BSTAR":0.00021612982,"MEAN_MOTION_DOT":8.9e-7,"MEAN_MOTION_DDOT":0},{"OBJECT_NAME":"ONEWEB-0086","OBJECT_ID":"2020-020AJ","EPOCH":"2026-03-22T05:59:41.066304","MEAN_MOTION":13.1140499,"ECCENTRICITY":0.00024825,"INCLINATION":87.8896,"RA_OF_ASC_NODE":38.3368,"ARG_OF_PERICENTER":97.4148,"MEAN_ANOMALY":262.7263,"EPHEMERIS_TYPE":0,"CLASSIFICATION_TYPE":"U","NORAD_CAT_ID":45456,"ELEMENT_SET_NO":999,"REV_AT_EPOCH":29121,"BSTAR":0.0089448192,"MEAN_MOTION_DOT":3.183e-5,"MEAN_MOTION_DDOT":0},{"OBJECT_NAME":"ONEWEB-0088","OBJECT_ID":"2020-020AK","EPOCH":"2026-03-22T03:38:02.068512","MEAN_MOTION":13.11411633,"ECCENTRICITY":0.00015925,"INCLINATION":87.8906,"RA_OF_ASC_NODE":38.3217,"ARG_OF_PERICENTER":74.1958,"MEAN_ANOMALY":285.9345,"EPHEMERIS_TYPE":0,"CLASSIFICATION_TYPE":"U","NORAD_CAT_ID":45457,"ELEMENT_SET_NO":999,"REV_AT_EPOCH":29113,"BSTAR":-0.00059685776,"MEAN_MOTION_DOT":-1.99e-6,"MEAN_MOTION_DDOT":0},{"OBJECT_NAME":"ONEWEB-0102","OBJECT_ID":"2020-100A","EPOCH":"2026-03-22T05:21:58.557024","MEAN_MOTION":13.12445031,"ECCENTRICITY":0.00019921,"INCLINATION":87.9007,"RA_OF_ASC_NODE":7.9442,"ARG_OF_PERICENTER":84.0291,"MEAN_ANOMALY":276.1065,"EPHEMERIS_TYPE":0,"CLASSIFICATION_TYPE":"U","NORAD_CAT_ID":47258,"ELEMENT_SET_NO":999,"REV_AT_EPOCH":25332,"BSTAR":0.00018398273,"MEAN_MOTION_DOT":7.9e-7,"MEAN_MOTION_DDOT":0},{"OBJECT_NAME":"ONEWEB-0109","OBJECT_ID":"2020-100B","EPOCH":"2026-03-22T05:34:11.375040","MEAN_MOTION":13.12444453,"ECCENTRICITY":0.00019508,"INCLINATION":87.9016,"RA_OF_ASC_NODE":7.9179,"ARG_OF_PERICENTER":76.9165,"MEAN_ANOMALY":283.2181,"EPHEMERIS_TYPE":0,"CLASSIFICATION_TYPE":"U","NORAD_CAT_ID":47259,"ELEMENT_SET_NO":999,"REV_AT_EPOCH":25315,"BSTAR":0.00098929083,"MEAN_MOTION_DOT":3.69e-6,"MEAN_MOTION_DDOT":0},{"OBJECT_NAME":"ONEWEB-0110","OBJECT_ID":"2020-100C","EPOCH":"2026-03-22T06:13:12.019296","MEAN_MOTION":13.12440572,"ECCENTRICITY":0.00019066,"INCLINATION":87.9013,"RA_OF_ASC_NODE":7.8973,"ARG_OF_PERICENTER":85.7078,"MEAN_ANOMALY":274.4268,"EPHEMERIS_TYPE":0,"CLASSIFICATION_TYPE":"U","NORAD_CAT_ID":47260,"ELEMENT_SET_NO":999,"REV_AT_EPOCH":25332,"BSTAR":0.00056403013,"MEAN_MOTION_DOT":2.16e-6,"MEAN_MOTION_DDOT":0},{"OBJECT_NAME":"ONEWEB-0111","OBJECT_ID":"2020-100D","EPOCH":"2026-03-22T05:07:20.096256","MEAN_MOTION":13.12444927,"ECCENTRICITY":0.00017378,"INCLINATION":87.9014,"RA_OF_ASC_NODE":7.9248,"ARG_OF_PERICENTER":81.8581,"MEAN_ANOMALY":278.2745,"EPHEMERIS_TYPE":0,"CLASSIFICATION_TYPE":"U","NORAD_CAT_ID":47261,"ELEMENT_SET_NO":999,"REV_AT_EPOCH":25315,"BSTAR":-0.00072169971,"MEAN_MOTION_DOT":-2.47e-6,"MEAN_MOTION_DDOT":0},{"OBJECT_NAME":"ONEWEB-0114","OBJECT_ID":"2020-100E","EPOCH":"2026-03-22T05:51:15.716160","MEAN_MOTION":13.12443762,"ECCENTRICITY":0.00018962,"INCLINATION":87.9018,"RA_OF_ASC_NODE":7.9146,"ARG_OF_PERICENTER":70.2879,"MEAN_ANOMALY":289.8454,"EPHEMERIS_TYPE":0,"CLASSIFICATION_TYPE":"U","NORAD_CAT_ID":47262,"ELEMENT_SET_NO":999,"REV_AT_EPOCH":25311,"BSTAR":0.0014444638,"MEAN_MOTION_DOT":5.32e-6,"MEAN_MOTION_DDOT":0},{"OBJECT_NAME":"ONEWEB-0117","OBJECT_ID":"2020-100F","EPOCH":"2026-03-22T05:39:03.362112","MEAN_MOTION":13.1244454,"ECCENTRICITY":0.00018165,"INCLINATION":87.9013,"RA_OF_ASC_NODE":7.9101,"ARG_OF_PERICENTER":78.9119,"MEAN_ANOMALY":281.2214,"EPHEMERIS_TYPE":0,"CLASSIFICATION_TYPE":"U","NORAD_CAT_ID":47263,"ELEMENT_SET_NO":999,"REV_AT_EPOCH":25312,"BSTAR":0.0012218285,"MEAN_MOTION_DOT":4.52e-6,"MEAN_MOTION_DDOT":0},{"OBJECT_NAME":"ONEWEB-0118","OBJECT_ID":"2020-100G","EPOCH":"2026-03-22T06:27:50.786784","MEAN_MOTION":13.12442279,"ECCENTRICITY":0.00017515,"INCLINATION":87.9016,"RA_OF_ASC_NODE":7.9059,"ARG_OF_PERICENTER":67.7129,"MEAN_ANOMALY":292.4185,"EPHEMERIS_TYPE":0,"CLASSIFICATION_TYPE":"U","NORAD_CAT_ID":47264,"ELEMENT_SET_NO":999,"REV_AT_EPOCH":25332,"BSTAR":-0.00042905303,"MEAN_MOTION_DOT":-1.42e-6,"MEAN_MOTION_DDOT":0},{"OBJECT_NAME":"ONEWEB-0119","OBJECT_ID":"2020-100H","EPOCH":"2026-03-22T05:14:39.537024","MEAN_MOTION":13.12445019,"ECCENTRICITY":0.00018185,"INCLINATION":87.9005,"RA_OF_ASC_NODE":7.9404,"ARG_OF_PERICENTER":77.4919,"MEAN_ANOMALY":282.6413,"EPHEMERIS_TYPE":0,"CLASSIFICATION_TYPE":"U","NORAD_CAT_ID":47265,"ELEMENT_SET_NO":999,"REV_AT_EPOCH":25329,"BSTAR":-0.00031961559,"MEAN_MOTION_DOT":-1.02e-6,"MEAN_MOTION_DDOT":0},{"OBJECT_NAME":"ONEWEB-0120","OBJECT_ID":"2020-100J","EPOCH":"2026-03-22T05:49:01.159392","MEAN_MOTION":13.12443903,"ECCENTRICITY":0.00018556,"INCLINATION":87.9005,"RA_OF_ASC_NODE":7.9364,"ARG_OF_PERICENTER":75.465,"MEAN_ANOMALY":284.6685,"EPHEMERIS_TYPE":0,"CLASSIFICATION_TYPE":"U","NORAD_CAT_ID":47266,"ELEMENT_SET_NO":999,"REV_AT_EPOCH":25332,"BSTAR":0.0015105284,"MEAN_MOTION_DOT":5.56e-6,"MEAN_MOTION_DDOT":0},{"OBJECT_NAME":"ONEWEB-0121","OBJECT_ID":"2020-100K","EPOCH":"2026-03-22T05:31:44.311008","MEAN_MOTION":13.12444694,"ECCENTRICITY":0.00018422,"INCLINATION":87.9017,"RA_OF_ASC_NODE":7.9163,"ARG_OF_PERICENTER":84.9936,"MEAN_ANOMALY":275.1403,"EPHEMERIS_TYPE":0,"CLASSIFICATION_TYPE":"U","NORAD_CAT_ID":47267,"ELEMENT_SET_NO":999,"REV_AT_EPOCH":25323,"BSTAR":0.00082203169,"MEAN_MOTION_DOT":3.08e-6,"MEAN_MOTION_DDOT":0}]
