ONEWEB-0087             
1 45451U 20020AD  26081.28183972 -.00000373  00000+0 -10878-2 0  9990
2 45451  87.8903  38.3040 0001756  89.5317 270.6012 13.11416088291199
ONEWEB-0082             
1 45452U 20020AE  26081.27857952 -.00000304  00000+0 -89482-3 0  9998
2 45452  87.8894  38.3282 0001799  88.1883 271.9452 13.11416173291284
ONEWEB-0050             
1 45453U 20020AF  26081.18245531  .00002423  00000+0  24896-3 0  9993
2 45453  88.9218 245.0450 0000958 326.0960  34.0208 14.90053143327422
ONEWEB-0034             
1 45454U 20020AG  26081.14719337 -.00000305  00000+0 -89635-3 0  9991
2 45454  87.8893  38.3586 0001894  80.9841 279.1501 13.11418728291184
ONEWEB-0060             
1 45455U 20020AH  26081.27095249  .00000089  00000+0  21613-3 0  9994
2 45455  87.8886  38.3438 0001964 112.7701 247.3635 13.11413888291154
ONEWEB-0086             
1 45456U 20020AJ  26081.24978086  .00003183  00000+0  89448-2 0  9998
2 45456  87.8896  38.3368 0002482  97.4148 262.7263 13.11404990291217
ONEWEB-0088             
1 45457U 20020AK  26081.15141283 -.00000199  00000+0 -59686-3 0  9998
2 45457  87.8906  38.3217 0001592  74.1958 285.9345 13.11411633291136
ONEWEB-0102             
1 47258U 20100A   26081.22359441  .00000079  00000+0  18398-3 0  9993
2 47258  87.9007   7.9442 0001992  84.0291 276.1065 13.12445031253326
ONEWEB-0109             
1 47259U 20100B   26081.23207610  .00000369  00000+0  98929-3 0  9995
2 47259  87.9016   7.9179 0001950  76.9165 283.2181 13.12444453253154
ONEWEB-0110             
1 47260U 20100C   26081.25916689  .00000216  00000+0  56403-3 0  9994
2 47260  87.9013   7.8973 0001906  85.7078 274.4268 13.12440572253321
ONEWEB-0111             
1 47261U 20100D   26081.21342704 -.00000247  00000+0 -72170-3 0  9997
2 47261  87.9014   7.9248 0001737  81.8581 278.2745 13.12444927253158
ONEWEB-0114             
1 47262U 20100E   26081.24393190  .00000532  00000+0  14445-2 0  9991
2 47262  87.9018   7.9146 0001896  70.2879 289.8454 13.12443762253115
ONEWEB-0117             
1 47263U 20100F   26081.23545558  .00000452  00000+0  12218-2 0  9995
2 47263  87.9013   7.9101 0001816  78.9119 281.2214 13.12444540253122
ONEWEB-0118             
1 47264U 20100G   26081.26933781 -.00000142  00000+0 -42905-3 0  9993
2 47264  87.9016   7.9059 0001751  67.7129 292.4185 13.12442279253323
ONEWEB-0119             
1 47265U 20100H   26081.21851316 -.00000102  00000+0 -31962-3 0  9999
2 47265  87.9005   7.9404 0001818  77.4919 282.6413 13.12445019253291
ONEWEB-0120             
1 47266U 20100J   26081.24237453  .00000556  00000+0  15105-2 0  9994
2 47266  87.9005   7.9364 0001855  75.4650 284.6685 13.12443903253325
ONEWEB-0121             
1 47267U 20100K   26081.23037397  .00000308  00000+0  82203-3 0  9998
2 47267  87.9017   7.9163 0001842  84.9936 275.1403 13.12444694253235
